KUIPER-00101            
1 65947U 25228A   25299.45258405  .00028697  00000+0  85172-3 0  9997
2 65947  51.8803 248.3639 0005711 179.2734 180.8261 15.34562788  3154
KUIPER-00113            
1 65948U 25228B   25299.45051052  .00028402  00000+0  83622-3 0  9999
2 65948  51.8809 248.3531 0006232 176.1994 183.9040 15.34819233  3154
KUIPER-00117            
1 65949U 25228C   25299.45084348  .00032701  00000+0  96202-3 0  9999
2 65949  51.8807 248.3554 0006008 176.6458 183.4569 15.34772710  3158
KUIPER-00121            
1 65950U 25228D   25299.45578331  .00025927  00000+0  78003-3 0  9992
2 65950  51.8818 248.3902 0005513 195.3118 164.7701 15.34189954  3152
KUIPER-00122            
1 65951U 25228E   25299.32641610  .00020702  00000+0  62847-3 0  9995
2 65951  51.8803 249.0176 0005989 200.3599 159.7149 15.34039827  3136
KUIPER-00123            
1 65952U 25228F   25299.45585547  .00025986  00000+0  78360-3 0  9992
2 65952  51.8802 248.3840 0005276 189.4262 170.6625 15.34118109  3153
KUIPER-00124            
1 65953U 25228G   25299.39196031  .00017649  00000+0  53836-3 0  9990
2 65953  51.8811 248.7098 0005509 204.0382 156.0347 15.34000754  3143
KUIPER-00125            
1 65954U 25228H   25299.45373602  .00016752  00000+0  50500-3 0  9998
2 65954  51.8800 248.3696 0005700 185.2432 174.8495 15.34414167  3151
KUIPER-00126            
1 65955U 25228J   25299.52143459  .00026506  00000+0  79804-3 0  9998
2 65955  51.8807 248.0757 0006010 199.2510 160.8249 15.34152528  3164
KUIPER-00127            
1 65956U 25228K   25299.45111479  .00028742  00000+0  84835-3 0  9992
2 65956  51.8804 248.3568 0006013 176.5243 183.5785 15.34735023  3152
KUIPER-00128            
1 65957U 25228L   25299.45291664  .00016491  00000+0  49576-3 0  9999
2 65957  51.8810 248.3707 0005778 180.6531 179.4448 15.34514614  3159
KUIPER-00129            
1 65958U 25228M   25299.45253870  .00019154  00000+0  57358-3 0  9993
2 65958  51.8810 248.3675 0005943 175.6765 184.4272 15.34526150  3150
