CCSDS_OMM_VERS = 2.0
CREATION_DATE  = 
ORIGINATOR     = 

OBJECT_NAME    = KUIPER-00101
OBJECT_ID      = 2025-228A
CENTER_NAME    = EARTH
REF_FRAME      = TEME
TIME_SYSTEM    = UTC
MEAN_ELEMENT_THEORY = SGP/SGP4

EPOCH          = 2025-10-26T10:51:43.261920
MEAN_MOTION    = 15.34562788
ECCENTRICITY   = .0005711
INCLINATION    = 51.8803
RA_OF_ASC_NODE = 248.3639
ARG_OF_PERICENTER = 179.2734
MEAN_ANOMALY   = 180.8261

EPHEMERIS_TYPE = 0
CLASSIFICATION_TYPE = U
NORAD_CAT_ID   = 65947
ELEMENT_SET_NO = 999
REV_AT_EPOCH   = 315
BSTAR          = .85172E-3
MEAN_MOTION_DOT = .28697E-3
MEAN_MOTION_DDOT = 0

CCSDS_OMM_VERS = 2.0
CREATION_DATE  = 
ORIGINATOR     = 

OBJECT_NAME    = KUIPER-00113
OBJECT_ID      = 2025-228B
CENTER_NAME    = EARTH
REF_FRAME      = TEME
TIME_SYSTEM    = UTC
MEAN_ELEMENT_THEORY = SGP/SGP4

EPOCH          = 2025-10-26T10:48:44.108928
MEAN_MOTION    = 15.34819233
ECCENTRICITY   = .0006232
INCLINATION    = 51.8809
RA_OF_ASC_NODE = 248.3531
ARG_OF_PERICENTER = 176.1994
MEAN_ANOMALY   = 183.9040

EPHEMERIS_TYPE = 0
CLASSIFICATION_TYPE = U
NORAD_CAT_ID   = 65948
ELEMENT_SET_NO = 999
REV_AT_EPOCH   = 315
BSTAR          = .83622E-3
MEAN_MOTION_DOT = .28402E-3
MEAN_MOTION_DDOT = 0

CCSDS_OMM_VERS = 2.0
CREATION_DATE  = 
ORIGINATOR     = 

OBJECT_NAME    = KUIPER-00117
OBJECT_ID      = 2025-228C
CENTER_NAME    = EARTH
REF_FRAME      = TEME
TIME_SYSTEM    = UTC
MEAN_ELEMENT_THEORY = SGP/SGP4

EPOCH          = 2025-10-26T10:49:12.876672
MEAN_MOTION    = 15.34772710
ECCENTRICITY   = .0006008
INCLINATION    = 51.8807
RA_OF_ASC_NODE = 248.3554
ARG_OF_PERICENTER = 176.6458
MEAN_ANOMALY   = 183.4569

EPHEMERIS_TYPE = 0
CLASSIFICATION_TYPE = U
NORAD_CAT_ID   = 65949
ELEMENT_SET_NO = 999
REV_AT_EPOCH   = 315
BSTAR          = .96202E-3
MEAN_MOTION_DOT = .32701E-3
MEAN_MOTION_DDOT = 0

CCSDS_OMM_VERS = 2.0
CREATION_DATE  = 
ORIGINATOR     = 

OBJECT_NAME    = KUIPER-00121
OBJECT_ID      = 2025-228D
CENTER_NAME    = EARTH
REF_FRAME      = TEME
TIME_SYSTEM    = UTC
MEAN_ELEMENT_THEORY = SGP/SGP4

EPOCH          = 2025-10-26T10:56:19.677984
MEAN_MOTION    = 15.34189954
ECCENTRICITY   = .0005513
INCLINATION    = 51.8818
RA_OF_ASC_NODE = 248.3902
ARG_OF_PERICENTER = 195.3118
MEAN_ANOMALY   = 164.7701

EPHEMERIS_TYPE = 0
CLASSIFICATION_TYPE = U
NORAD_CAT_ID   = 65950
ELEMENT_SET_NO = 999
REV_AT_EPOCH   = 315
BSTAR          = .78003E-3
MEAN_MOTION_DOT = .25927E-3
MEAN_MOTION_DDOT = 0

CCSDS_OMM_VERS = 2.0
CREATION_DATE  = 
ORIGINATOR     = 

OBJECT_NAME    = KUIPER-00122
OBJECT_ID      = 2025-228E
CENTER_NAME    = EARTH
REF_FRAME      = TEME
TIME_SYSTEM    = UTC
MEAN_ELEMENT_THEORY = SGP/SGP4

EPOCH          = 2025-10-26T07:50:02.351040
MEAN_MOTION    = 15.34039827
ECCENTRICITY   = .0005989
INCLINATION    = 51.8803
RA_OF_ASC_NODE = 249.0176
ARG_OF_PERICENTER = 200.3599
MEAN_ANOMALY   = 159.7149

EPHEMERIS_TYPE = 0
CLASSIFICATION_TYPE = U
NORAD_CAT_ID   = 65951
ELEMENT_SET_NO = 999
REV_AT_EPOCH   = 313
BSTAR          = .62847E-3
MEAN_MOTION_DOT = .20702E-3
MEAN_MOTION_DDOT = 0

CCSDS_OMM_VERS = 2.0
CREATION_DATE  = 
ORIGINATOR     = 

OBJECT_NAME    = KUIPER-00123
OBJECT_ID      = 2025-228F
CENTER_NAME    = EARTH
REF_FRAME      = TEME
TIME_SYSTEM    = UTC
MEAN_ELEMENT_THEORY = SGP/SGP4

EPOCH          = 2025-10-26T10:56:25.912608
MEAN_MOTION    = 15.34118109
ECCENTRICITY   = .0005276
INCLINATION    = 51.8802
RA_OF_ASC_NODE = 248.3840
ARG_OF_PERICENTER = 189.4262
MEAN_ANOMALY   = 170.6625

EPHEMERIS_TYPE = 0
CLASSIFICATION_TYPE = U
NORAD_CAT_ID   = 65952
ELEMENT_SET_NO = 999
REV_AT_EPOCH   = 315
BSTAR          = .7836E-3
MEAN_MOTION_DOT = .25986E-3
MEAN_MOTION_DDOT = 0

CCSDS_OMM_VERS = 2.0
CREATION_DATE  = 
ORIGINATOR     = 

OBJECT_NAME    = KUIPER-00124
OBJECT_ID      = 2025-228G
CENTER_NAME    = EARTH
REF_FRAME      = TEME
TIME_SYSTEM    = UTC
MEAN_ELEMENT_THEORY = SGP/SGP4

EPOCH          = 2025-10-26T09:24:25.370784
MEAN_MOTION    = 15.34000754
ECCENTRICITY   = .0005509
INCLINATION    = 51.8811
RA_OF_ASC_NODE = 248.7098
ARG_OF_PERICENTER = 204.0382
MEAN_ANOMALY   = 156.0347

EPHEMERIS_TYPE = 0
CLASSIFICATION_TYPE = U
NORAD_CAT_ID   = 65953
ELEMENT_SET_NO = 999
REV_AT_EPOCH   = 314
BSTAR          = .53836E-3
MEAN_MOTION_DOT = .17649E-3
MEAN_MOTION_DDOT = 0

CCSDS_OMM_VERS = 2.0
CREATION_DATE  = 
ORIGINATOR     = 

OBJECT_NAME    = KUIPER-00125
OBJECT_ID      = 2025-228H
CENTER_NAME    = EARTH
REF_FRAME      = TEME
TIME_SYSTEM    = UTC
MEAN_ELEMENT_THEORY = SGP/SGP4

EPOCH          = 2025-10-26T10:53:22.792128
MEAN_MOTION    = 15.34414167
ECCENTRICITY   = .00057
INCLINATION    = 51.8800
RA_OF_ASC_NODE = 248.3696
ARG_OF_PERICENTER = 185.2432
MEAN_ANOMALY   = 174.8495

EPHEMERIS_TYPE = 0
CLASSIFICATION_TYPE = U
NORAD_CAT_ID   = 65954
ELEMENT_SET_NO = 999
REV_AT_EPOCH   = 315
BSTAR          = .505E-3
MEAN_MOTION_DOT = .16752E-3
MEAN_MOTION_DDOT = 0

CCSDS_OMM_VERS = 2.0
CREATION_DATE  = 
ORIGINATOR     = 

OBJECT_NAME    = KUIPER-00126
OBJECT_ID      = 2025-228J
CENTER_NAME    = EARTH
REF_FRAME      = TEME
TIME_SYSTEM    = UTC
MEAN_ELEMENT_THEORY = SGP/SGP4

EPOCH          = 2025-10-26T12:30:51.948576
MEAN_MOTION    = 15.34152528
ECCENTRICITY   = .000601
INCLINATION    = 51.8807
RA_OF_ASC_NODE = 248.0757
ARG_OF_PERICENTER = 199.2510
MEAN_ANOMALY   = 160.8249

EPHEMERIS_TYPE = 0
CLASSIFICATION_TYPE = U
NORAD_CAT_ID   = 65955
ELEMENT_SET_NO = 999
REV_AT_EPOCH   = 316
BSTAR          = .79804E-3
MEAN_MOTION_DOT = .26506E-3
MEAN_MOTION_DDOT = 0

CCSDS_OMM_VERS = 2.0
CREATION_DATE  = 
ORIGINATOR     = 

OBJECT_NAME    = KUIPER-00127
OBJECT_ID      = 2025-228K
CENTER_NAME    = EARTH
REF_FRAME      = TEME
TIME_SYSTEM    = UTC
MEAN_ELEMENT_THEORY = SGP/SGP4

EPOCH          = 2025-10-26T10:49:36.317856
MEAN_MOTION    = 15.34735023
ECCENTRICITY   = .0006013
INCLINATION    = 51.8804
RA_OF_ASC_NODE = 248.3568
ARG_OF_PERICENTER = 176.5243
MEAN_ANOMALY   = 183.5785

EPHEMERIS_TYPE = 0
CLASSIFICATION_TYPE = U
NORAD_CAT_ID   = 65956
ELEMENT_SET_NO = 999
REV_AT_EPOCH   = 315
BSTAR          = .84835E-3
MEAN_MOTION_DOT = .28742E-3
MEAN_MOTION_DDOT = 0

CCSDS_OMM_VERS = 2.0
CREATION_DATE  = 
ORIGINATOR     = 

OBJECT_NAME    = KUIPER-00128
OBJECT_ID      = 2025-228L
CENTER_NAME    = EARTH
REF_FRAME      = TEME
TIME_SYSTEM    = UTC
MEAN_ELEMENT_THEORY = SGP/SGP4

EPOCH          = 2025-10-26T10:52:11.997696
MEAN_MOTION    = 15.34514614
ECCENTRICITY   = .0005778
INCLINATION    = 51.8810
RA_OF_ASC_NODE = 248.3707
ARG_OF_PERICENTER = 180.6531
MEAN_ANOMALY   = 179.4448

EPHEMERIS_TYPE = 0
CLASSIFICATION_TYPE = U
NORAD_CAT_ID   = 65957
ELEMENT_SET_NO = 999
REV_AT_EPOCH   = 315
BSTAR          = .49576E-3
MEAN_MOTION_DOT = .16491E-3
MEAN_MOTION_DDOT = 0

CCSDS_OMM_VERS = 2.0
CREATION_DATE  = 
ORIGINATOR     = 

OBJECT_NAME    = KUIPER-00129
OBJECT_ID      = 2025-228M
CENTER_NAME    = EARTH
REF_FRAME      = TEME
TIME_SYSTEM    = UTC
MEAN_ELEMENT_THEORY = SGP/SGP4

EPOCH          = 2025-10-26T10:51:39.343680
MEAN_MOTION    = 15.34526150
ECCENTRICITY   = .0005943
INCLINATION    = 51.8810
RA_OF_ASC_NODE = 248.3675
ARG_OF_PERICENTER = 175.6765
MEAN_ANOMALY   = 184.4272

EPHEMERIS_TYPE = 0
CLASSIFICATION_TYPE = U
NORAD_CAT_ID   = 65958
ELEMENT_SET_NO = 999
REV_AT_EPOCH   = 315
BSTAR          = .57358E-3
MEAN_MOTION_DOT = .19154E-3
MEAN_MOTION_DDOT = 0

